[
  "FORMOSAT-2 (ROCSAT 2)   \r\n1 28254U 04018A   26176.54296726 -.00000209  00000+0 -11033-3 0  9990\r\n2 28254  98.8460 143.7697 0001073 338.9456 131.5184 14.01259465129927\r\n",
  "FORMOSAT-3 FM6          \r\n1 29047U 06011A   26176.48863009  .00000433  00000+0  17661-3 0  9993\r\n2 29047  71.9781 294.3340 0049466 224.8590 134.8545 14.31404035 55590\r\n",
  "FORMOSAT-3 FM1          \r\n1 29048U 06011B   26176.48249981  .00000339  00000+0  14215-3 0  9998\r\n2 29048  71.9642 202.7563 0042362 188.6862 171.3548 14.31395418 57960\r\n",
  "FORMOSAT-3 FM5          \r\n1 29049U 06011C   26175.97355577  .00000303  00000+0  12910-3 0  9992\r\n2 29049  72.0189  27.9740 0034282 195.9828 164.0232 14.31409235 53786\r\n",
  "FORMOSAT-3 FM3          \r\n1 29050U 06011D   26176.57246600  .00001083  00000+0  19961-3 0  9996\r\n2 29050  72.0140 294.1420 0044970 270.0231  89.5772 14.66975284 77603\r\n",
  "FORMOSAT-3 FM4          \r\n1 29051U 06011E   26176.56202448  .00000356  00000+0  14576-3 0  9997\r\n2 29051  72.0045 284.3008 0064303  75.6568 285.1697 14.31545392 56461\r\n",
  "FORMOSAT-3 FM2          \r\n1 29052U 06011F   26176.56043334  .00000362  00000+0  15005-3 0  9990\r\n2 29052  72.0330   5.1488 0038094 147.8528 212.4944 14.31623178 53987\r\n",
  "PACE                    \r\n1 40022U 14033N   26176.47434969  .00005656  00000+0  34375-3 0  9993\r\n2 40022  98.1241 181.8532 0006350 174.2895 185.8407 15.10896552654283\r\n",
  "FORMOSAT-5              \r\n1 42920U 17049A   26176.53538209  .00000137  00000+0  45686-4 0  9998\r\n2 42920  98.2252 251.6597 0012483  61.1963 299.0484 14.50901555467880\r\n",
  "FORMOSAT 7-3            \r\n1 44343U 19036E   26176.51084893  .00004434  00000+0  24612-3 0  9999\r\n2 44343  23.9980 121.2472 0000802  37.9989 322.0571 15.09849246384503\r\n",
  "FORMOSAT 7-1            \r\n1 44349U 19036L   26176.51488495  .00002593  00000+0  19656-3 0  9997\r\n2 44349  23.9990 336.2507 0000436 286.9970  73.0483 14.96539069385900\r\n",
  "FORMOSAT 7-4            \r\n1 44350U 19036M   26175.93731612  .00002474  00000+0  18643-3 0  9999\r\n2 44350  23.9990  42.2492 0000879 285.7480  74.2924 14.96527255385236\r\n",
  "FORMOSAT 7-2            \r\n1 44351U 19036N   26176.42639305  .00002468  00000+0  18591-3 0  9996\r\n2 44351  23.9982  93.2660 0000354 287.0479  72.9983 14.96528896384828\r\n",
  "FORMOSAT 7-6            \r\n1 44353U 19036Q   26176.55943040  .00002385  00000+0  17873-3 0  9996\r\n2 44353  23.9976 273.1878 0001009 177.3546 182.6961 14.96543584383079\r\n",
  "FORMOSAT 7-5            \r\n1 44358U 19036V   26176.40330995  .00002214  00000+0  16408-3 0  9998\r\n2 44358  23.9969 212.9889 0000051 143.3743 216.6762 14.96545612383584\r\n",
  "FORMOSAT-7R (TRITON)    \r\n1 58017U 23155B   26176.49319461  .00001496  00000+0  15652-3 0  9997\r\n2 58017  97.8357 257.8286 0002498  77.6819 282.4679 14.91139700147466\r\n",
  "NIGHTJAR                \r\n1 60535U 24149BV  26176.46932070  .00003193  00000+0  26799-3 0  9993\r\n2 60535  97.6832 253.0603 0000811 109.4541 250.6769 14.99054233144115\r\n",
  "IRIS-F3                 \r\n1 62619U 25009L   26176.18061624  .00007788  00000+0  29531-3 0  9992\r\n2 62619  97.4010 256.9519 0005010 301.6771  58.3979 15.27136144 80042\r\n",
  "IRIS-F2                 \r\n1 62684U 25009CD  26176.26204441  .00016801  00000+0  63850-3 0  9997\r\n2 62684  97.3894 255.9575 0004170 331.6554  28.4458 15.26860519137695\r\n",
  "FORMOSAT-8A             \r\n1 66666U 25276A   26176.47343064  .00001490  00000+0  12232-3 0  9991\r\n2 66666  97.6551 250.5950 0003466 214.0906 146.0096 15.00694089 31307\r\n",
  "LILIUM-2                \r\n1 66679U 25276P   26176.14982557  .00003212  00000+0  16121-3 0  9990\r\n2 66679  97.4153 249.0338 0005540 355.3437   4.7744 15.18007274 31609\r\n",
  "FLOCK 4H-5              \r\n1 66708U 25276AU  26176.46500938  .00006276  00000+0  28872-3 0  9996\r\n2 66708  97.4181 250.0396 0000774  87.1564 272.9760 15.20683381 31692\r\n",
  "BLACK KITE-1            \r\n1 66741U 25276CD  26176.46937244  .00009848  00000+0  45089-3 0  9994\r\n2 66741  97.4247 250.0706 0004440 334.2401  25.8612 15.20693439 28981\r\n",
  "T.MICROSAT-1            \r\n1 66766U 25276DE  26176.16892273  .00006308  00000+0  28844-3 0  9998\r\n2 66766  97.4163 249.7716 0002072 116.1024 244.0425 15.20890307 31656\r\n",
  "LILIUM-3                \r\n1 66770U 25276DJ  26176.19273876  .00002306  00000+0  11171-3 0  9997\r\n2 66770  97.4245 249.8192 0001468 170.5749 189.5514 15.19540705 31640\r\n",
  "T.MICROSAT-2            \r\n1 68433U 26067T   26176.43542351  .00006107  00000+0  30808-3 0  9999\r\n2 68433  97.4567 134.6825 0007055  47.2093 312.9733 15.17467124 13184\r\n",
  "PARUS-6U1               \r\n1 68456U 26067AS  26176.43063227  .00006861  00000+0  34445-3 0  9992\r\n2 68456  97.4548 134.6673 0006944  49.9340 310.2502 15.17596351 13189\r\n",
  "BLACK KITE-2            \r\n1 68474U 26067BL  26176.39328551  .00002062  00000+0  20580-3 0  9995\r\n2 68474  97.7553 134.5604 0001582 163.9525 196.1744 14.92615974 12954\r\n",
  "PEARL-1B                \r\n1 68980U 26100A   26176.43498356  .00001864  00000+0  19596-3 0  9995\r\n2 68980  97.7359  73.6395 0008696 114.2310 245.9818 14.90592963  7919\r\n",
  "PEARL-1A                \r\n1 68990U 26100L   26176.28573557  .00001792  00000+0  18684-3 0  9993\r\n2 68990  97.7306  73.4995 0006444 126.2369 233.9446 14.91000835  7908\r\n"
]